start=new Date('2022-01-25T00:00:00.000Z').valueOf();
sats=[{"MEAN_MOTION_DDOT":"0.0000000000000","APOAPSIS":"548.168","COUNTRY_CODE":"US","RA_OF_ASC_NODE":"113.0552","ECCENTRICITY":"0.00013950","MEAN_ANOMALY":"283.3495","INCLINATION":"53.0549","EPOCH":"2022-01-24T15:20:24.347616","MEAN_MOTION":"15.06403780","SEMIMAJOR_AXIS":"6925.337","LAUNCH_DATE":"2020-06-13","MEAN_MOTION_DOT":"0.00001022","TLE_LINE1":"1 45773U 20038AV  22024.63917069  .00001022  00000-0  87494-4 0  9991","SITE":"AFETR","OBJECT_TYPE":"PAYLOAD","NORAD_CAT_ID":"45773","MEAN_ELEMENT_THEORY":"SGP4","OBJECT_ID":"2020-038AV","PERIAPSIS":"546.236","ARG_OF_PERICENTER":"76.7649","PERIOD":"95.592","OBJECT_NAME":"STARLINK-1482","DECAY_DATE":null,"TLE_LINE2":"2 45773  53.0549 113.0552 0001395  76.7649 283.3495 15.06403780 89913","EPHEMERIS_TYPE":"0","ELEMENT_SET_NO":"999","CLASSIFICATION_TYPE":"U","REV_AT_EPOCH":"8991","REF_FRAME":"TEME","CENTER_NAME":"EARTH","BSTAR":"0.00008749400000","FILE":"3282614","TIME_SYSTEM":"UTC","RCS_SIZE":"LARGE","GP_ID":"194568059"},{"INCLINATION":"53.0546","MEAN_ANOMALY":"285.5921","ECCENTRICITY":"0.00013040","MEAN_MOTION":"15.06402230","EPOCH":"2022-01-24T14:37:57.121824","MEAN_MOTION_DDOT":"0.0000000000000","COUNTRY_CODE":"US","RA_OF_ASC_NODE":"113.1788","APOAPSIS":"548.110","NORAD_CAT_ID":"45774","MEAN_ELEMENT_THEORY":"SGP4","MEAN_MOTION_DOT":"0.00001028","SEMIMAJOR_AXIS":"6925.342","LAUNCH_DATE":"2020-06-13","TLE_LINE1":"1 45774U 20038AW  22024.60968891  .00001028  00000-0  87889-4 0  9992","SITE":"AFETR","OBJECT_TYPE":"PAYLOAD","DECAY_DATE":null,"OBJECT_NAME":"STARLINK-1485","PERIAPSIS":"546.304","OBJECT_ID":"2020-038AW","PERIOD":"95.592","ARG_OF_PERICENTER":"74.5212","GP_ID":"194569310","RCS_SIZE":"LARGE","CLASSIFICATION_TYPE":"U","ELEMENT_SET_NO":"999","EPHEMERIS_TYPE":"0","TLE_LINE2":"2 45774  53.0546 113.1788 0001304  74.5212 285.5921 15.06402230 89901","TIME_SYSTEM":"UTC","FILE":"3282614","REV_AT_EPOCH":"8990","REF_FRAME":"TEME","BSTAR":"0.00008788900000","CENTER_NAME":"EARTH"},{"OBJECT_NAME":"STARLINK-1488","DECAY_DATE":null,"ARG_OF_PERICENTER":"75.3605","PERIOD":"95.592","OBJECT_ID":"2020-038AX","PERIAPSIS":"546.226","RCS_SIZE":"LARGE","GP_ID":"194569054","BSTAR":"0.00003793100000","CENTER_NAME":"EARTH","REV_AT_EPOCH":"8992","REF_FRAME":"TEME","TIME_SYSTEM":"UTC","FILE":"3282614","TLE_LINE2":"2 45775  53.0548 112.8741 0001408  75.3605 284.7540 15.06404049 89929","CLASSIFICATION_TYPE":"U","ELEMENT_SET_NO":"999","EPHEMERIS_TYPE":"0","EPOCH":"2022-01-24T16:18:47.374272","MEAN_MOTION":"15.06404049","ECCENTRICITY":"0.00014080","MEAN_ANOMALY":"284.7540","INCLINATION":"53.0548","APOAPSIS":"548.176","COUNTRY_CODE":"US","RA_OF_ASC_NODE":"112.8741","MEAN_MOTION_DDOT":"0.0000000000000","MEAN_ELEMENT_THEORY":"SGP4","NORAD_CAT_ID":"45775","TLE_LINE1":"1 45775U 20038AX  22024.67971498  .00000284  00000-0  37931-4 0  9993","OBJECT_TYPE":"PAYLOAD","SITE":"AFETR","SEMIMAJOR_AXIS":"6925.336","LAUNCH_DATE":"2020-06-13","MEAN_MOTION_DOT":"0.00000284"},{"RCS_SIZE":"LARGE","GP_ID":"194568309","TLE_LINE2":"2 45776  53.0535 112.5355 0001092  64.0026 296.1075 15.06390550 89937","CLASSIFICATION_TYPE":"U","ELEMENT_SET_NO":"999","EPHEMERIS_TYPE":"0","REV_AT_EPOCH":"8993","REF_FRAME":"TEME","BSTAR":"0.00007795500000","CENTER_NAME":"EARTH","FILE":"3282614","TIME_SYSTEM":"UTC","OBJECT_NAME":"STARLINK-1489","DECAY_DATE":null,"OBJECT_ID":"2020-038AY","PERIAPSIS":"546.486","ARG_OF_PERICENTER":"64.0026","PERIOD":"95.593","NORAD_CAT_ID":"45776","MEAN_ELEMENT_THEORY":"SGP4","SEMIMAJOR_AXIS":"6925.378","LAUNCH_DATE":"2020-06-13","MEAN_MOTION_DOT":"0.00000880","TLE_LINE1":"1 45776U 20038AY  22024.75343778  .00000880  00000-0  77955-4 0  9999","SITE":"AFETR","OBJECT_TYPE":"PAYLOAD","ECCENTRICITY":"0.00010920","INCLINATION":"53.0535","MEAN_ANOMALY":"296.1075","EPOCH":"2022-01-24T18:04:57.024192","MEAN_MOTION":"15.06390550","MEAN_MOTION_DDOT":"0.0000000000000","APOAPSIS":"547.999","RA_OF_ASC_NODE":"112.5355","COUNTRY_CODE":"US"},{"MEAN_MOTION_DDOT":"0.0000000000000","APOAPSIS":"548.159","COUNTRY_CODE":"US","RA_OF_ASC_NODE":"112.5647","ECCENTRICITY":"0.00013660","MEAN_ANOMALY":"293.2371","INCLINATION":"53.0549","EPOCH":"2022-01-24T17:59:38.944320","MEAN_MOTION":"15.06400198","LAUNCH_DATE":"2020-06-13","SEMIMAJOR_AXIS":"6925.348","MEAN_MOTION_DOT":"0.00000986","SITE":"AFETR","TLE_LINE1":"1 45777U 20038AZ  22024.74975630  .00000986  00000-0  85091-4 0  9994","OBJECT_TYPE":"PAYLOAD","NORAD_CAT_ID":"45777","MEAN_ELEMENT_THEORY":"SGP4","OBJECT_ID":"2020-038AZ","PERIAPSIS":"546.267","ARG_OF_PERICENTER":"66.8762","PERIOD":"95.592","OBJECT_NAME":"STARLINK-1490","DECAY_DATE":null,"TLE_LINE2":"2 45777  53.0549 112.5647 0001366  66.8762 293.2371 15.06400198 89935","CLASSIFICATION_TYPE":"U","ELEMENT_SET_NO":"999","EPHEMERIS_TYPE":"0","CENTER_NAME":"EARTH","BSTAR":"0.00008509100000","REV_AT_EPOCH":"8993","REF_FRAME":"TEME","TIME_SYSTEM":"UTC","FILE":"3282614","RCS_SIZE":"LARGE","GP_ID":"194568559"},{"DECAY_DATE":null,"OBJECT_NAME":"STARLINK-1491","PERIOD":"95.592","ARG_OF_PERICENTER":"77.9014","PERIAPSIS":"546.281","OBJECT_ID":"2020-038BA","GP_ID":"194568811","RCS_SIZE":"LARGE","TIME_SYSTEM":"UTC","FILE":"3282614","CENTER_NAME":"EARTH","BSTAR":"0.00008761200000","REF_FRAME":"TEME","REV_AT_EPOCH":"8991","CLASSIFICATION_TYPE":"U","ELEMENT_SET_NO":"999","EPHEMERIS_TYPE":"0","TLE_LINE2":"2 45778  53.0540 112.6407 0001371  77.9014 282.2128 15.06394408 89913","MEAN_MOTION":"15.06394408","EPOCH":"2022-01-24T17:33:07.306848","MEAN_ANOMALY":"282.2128","INCLINATION":"53.0540","ECCENTRICITY":"0.00013710","COUNTRY_CODE":"US","RA_OF_ASC_NODE":"112.6407","APOAPSIS":"548.180","MEAN_MOTION_DDOT":"0.0000000000000","MEAN_ELEMENT_THEORY":"SGP4","NORAD_CAT_ID":"45778","OBJECT_TYPE":"PAYLOAD","TLE_LINE1":"1 45778U 20038BA  22024.73133457  .00001024  00000-0  87612-4 0  9992","SITE":"AFETR","MEAN_MOTION_DOT":"0.00001024","SEMIMAJOR_AXIS":"6925.366","LAUNCH_DATE":"2020-06-13"},{"GP_ID":"194569554","RCS_SIZE":"LARGE","TIME_SYSTEM":"UTC","FILE":"3282614","CENTER_NAME":"EARTH","BSTAR":"-0.00002958600000","REF_FRAME":"TEME","REV_AT_EPOCH":"8990","ELEMENT_SET_NO":"999","EPHEMERIS_TYPE":"0","CLASSIFICATION_TYPE":"U","TLE_LINE2":"2 45779  53.0533 112.9558 0001537  64.4605 295.6543 15.06392399 89902","DECAY_DATE":null,"OBJECT_NAME":"STARLINK-1492","PERIOD":"95.593","ARG_OF_PERICENTER":"64.4605","PERIAPSIS":"546.172","OBJECT_ID":"2020-038BB","MEAN_ELEMENT_THEORY":"SGP4","NORAD_CAT_ID":"45779","SITE":"AFETR","TLE_LINE1":"1 45779U 20038BB  22024.66129747 -.00000722  00000-0 -29586-4 0  9994","OBJECT_TYPE":"PAYLOAD","MEAN_MOTION_DOT":"-0.00000722","SEMIMAJOR_AXIS":"6925.372","LAUNCH_DATE":"2020-06-13","MEAN_MOTION":"15.06392399","EPOCH":"2022-01-24T15:52:16.101408","MEAN_ANOMALY":"295.6543","INCLINATION":"53.0533","ECCENTRICITY":"0.00015370","COUNTRY_CODE":"US","RA_OF_ASC_NODE":"112.9558","APOAPSIS":"548.301","MEAN_MOTION_DDOT":"0.0000000000000"},{"OBJECT_NAME":"STARLINK-1496","DECAY_DATE":null,"OBJECT_ID":"2020-038BC","PERIAPSIS":"546.280","ARG_OF_PERICENTER":"90.1944","PERIOD":"95.593","RCS_SIZE":"LARGE","GP_ID":"194530084","TLE_LINE2":"2 45780  53.0557 113.5120 0001391  90.1944 269.9204 15.06390414 89883","CLASSIFICATION_TYPE":"U","ELEMENT_SET_NO":"999","EPHEMERIS_TYPE":"0","CENTER_NAME":"EARTH","BSTAR":"-0.00008035800000","REF_FRAME":"TEME","REV_AT_EPOCH":"8988","FILE":"3281820","TIME_SYSTEM":"UTC","ECCENTRICITY":"0.00013910","MEAN_ANOMALY":"269.9204","INCLINATION":"53.0557","EPOCH":"2022-01-24T12:57:06.343200","MEAN_MOTION":"15.06390414","MEAN_MOTION_DDOT":"0.0000000000000","APOAPSIS":"548.206","RA_OF_ASC_NODE":"113.5120","COUNTRY_CODE":"US","NORAD_CAT_ID":"45780","MEAN_ELEMENT_THEORY":"SGP4","SEMIMAJOR_AXIS":"6925.378","LAUNCH_DATE":"2020-06-13","MEAN_MOTION_DOT":"-0.00001478","TLE_LINE1":"1 45780U 20038BC  22024.53965675 -.00001478  00000-0 -80358-4 0  9993","SITE":"AFETR","OBJECT_TYPE":"PAYLOAD"},{"PERIAPSIS":"546.240","OBJECT_ID":"2020-038BD","PERIOD":"95.592","ARG_OF_PERICENTER":"64.7277","DECAY_DATE":null,"OBJECT_NAME":"STARLINK-1497","CLASSIFICATION_TYPE":"U","ELEMENT_SET_NO":"999","EPHEMERIS_TYPE":"0","TLE_LINE2":"2 45781  53.0527 112.7961 0001375  64.7277 295.3854 15.06406849 89911","TIME_SYSTEM":"UTC","FILE":"3282614","REF_FRAME":"TEME","REV_AT_EPOCH":"8991","CENTER_NAME":"EARTH","BSTAR":"0.00001043200000","GP_ID":"194568060","RCS_SIZE":"LARGE","MEAN_MOTION_DDOT":"0.0000000000000","COUNTRY_CODE":"US","RA_OF_ASC_NODE":"112.7961","APOAPSIS":"548.145","MEAN_ANOMALY":"295.3854","INCLINATION":"53.0527","ECCENTRICITY":"0.00013750","MEAN_MOTION":"15.06406849","EPOCH":"2022-01-24T16:45:20.023488","MEAN_MOTION_DOT":"-0.00000126","SEMIMAJOR_AXIS":"6925.328","LAUNCH_DATE":"2020-06-13","TLE_LINE1":"1 45781U 20038BD  22024.69814842 -.00000126  00000-0  10432-4 0  9994","SITE":"AFETR","OBJECT_TYPE":"PAYLOAD","NORAD_CAT_ID":"45781","MEAN_ELEMENT_THEORY":"SGP4"},{"DECAY_DATE":null,"OBJECT_NAME":"STARLINK-1498","PERIOD":"95.592","ARG_OF_PERICENTER":"75.9534","PERIAPSIS":"546.304","OBJECT_ID":"2020-038BE","GP_ID":"194569311","RCS_SIZE":"LARGE","FILE":"3282614","TIME_SYSTEM":"UTC","BSTAR":"0.00010072000000","CENTER_NAME":"EARTH","REF_FRAME":"TEME","REV_AT_EPOCH":"8991","CLASSIFICATION_TYPE":"U","ELEMENT_SET_NO":"999","EPHEMERIS_TYPE":"0","TLE_LINE2":"2 45782  53.0542 113.1251 0001288  75.9534 284.1598 15.06405631 89918","MEAN_MOTION":"15.06405631","EPOCH":"2022-01-24T14:59:10.656960","INCLINATION":"53.0542","MEAN_ANOMALY":"284.1598","ECCENTRICITY":"0.00012880","COUNTRY_CODE":"US","RA_OF_ASC_NODE":"113.1251","APOAPSIS":"548.088","MEAN_MOTION_DDOT":"0.0000000000000","MEAN_ELEMENT_THEORY":"SGP4","NORAD_CAT_ID":"45782","TLE_LINE1":"1 45782U 20038BE  22024.62442890  .00001219  00000-0  10072-3 0  9990","SITE":"AFETR","OBJECT_TYPE":"PAYLOAD","MEAN_MOTION_DOT":"0.00001219","LAUNCH_DATE":"2020-06-13","SEMIMAJOR_AXIS":"6925.331"}];
